STARLINK-30581          
1 58096U 23160X   26068.09473080  .00000366  00000+0  22828-4 0  9993
2 58096  43.0042  81.3299 0001161 262.9325  97.1395 15.27573231132852
NUSAT-45 (UZMASAT-1)    
1 62640U 25009AH  26068.15592621  .00012539  00000+0  48087-3 0  9996
2 62640  97.3985 150.3373 0001172   1.4631 358.6611 15.26632732 63634
